start=new Date('2022-04-08T00:00:00.000Z').valueOf();
sats=[{"RA_OF_ASC_NODE":"170.1533","REV_AT_EPOCH":"8157","MEAN_MOTION_DDOT":"0.0000000000000","OBJECT_NAME":"STARLINK-1773","DECAY_DATE":null,"SEMIMAJOR_AXIS":"6925.271","ECCENTRICITY":"0.00017850","FILE":"3392478","TIME_SYSTEM":"UTC","ELEMENT_SET_NO":"999","REF_FRAME":"TEME","TLE_LINE2":"2 46679  53.0555 170.1533 0001785  54.0029 306.1125 15.06425196 81576","APOAPSIS":"548.372","TLE_LINE1":"1 46679U 20073K   22097.68298698  .00021199  00000-0  14368-2 0  9996","ARG_OF_PERICENTER":"54.0029","CENTER_NAME":"EARTH","OBJECT_ID":"2020-073K","RCS_SIZE":"LARGE","MEAN_ANOMALY":"306.1125","GP_ID":"200700597","MEAN_ELEMENT_THEORY":"SGP4","SITE":"AFETR","MEAN_MOTION_DOT":"0.00021199","PERIOD":"95.591","MEAN_MOTION":"15.06425196","INCLINATION":"53.0555","PERIAPSIS":"545.900","BSTAR":"0.00143680000000","LAUNCH_DATE":"2020-10-18","CLASSIFICATION_TYPE":"U","EPHEMERIS_TYPE":"0","OBJECT_TYPE":"PAYLOAD","COUNTRY_CODE":"US","EPOCH":"2022-04-07T16:23:30.075072","NORAD_CAT_ID":"46679"},{"OBJECT_NAME":"STARLINK-1774","DECAY_DATE":null,"SEMIMAJOR_AXIS":"6925.354","RA_OF_ASC_NODE":"205.4353","REV_AT_EPOCH":"8107","MEAN_MOTION_DDOT":"0.0000000000000","ELEMENT_SET_NO":"999","REF_FRAME":"TEME","ECCENTRICITY":"0.00015680","FILE":"3392478","TIME_SYSTEM":"UTC","MEAN_ELEMENT_THEORY":"SGP4","GP_ID":"200700843","MEAN_MOTION_DOT":"0.00006778","PERIOD":"95.592","SITE":"AFETR","MEAN_MOTION":"15.06398342","TLE_LINE1":"1 46680U 20073L   22097.61894031  .00006778  00000-0  47352-3 0  9990","APOAPSIS":"548.305","TLE_LINE2":"2 46680  53.0549 205.4353 0001568  55.6230 304.4907 15.06398342 81079","CENTER_NAME":"EARTH","ARG_OF_PERICENTER":"55.6230","RCS_SIZE":"LARGE","MEAN_ANOMALY":"304.4907","OBJECT_ID":"2020-073L","LAUNCH_DATE":"2020-10-18","EPHEMERIS_TYPE":"0","CLASSIFICATION_TYPE":"U","EPOCH":"2022-04-07T14:51:16.442784","OBJECT_TYPE":"PAYLOAD","COUNTRY_CODE":"US","NORAD_CAT_ID":"46680","INCLINATION":"53.0549","BSTAR":"0.00047352000000","PERIAPSIS":"546.133"},{"NORAD_CAT_ID":"46681","OBJECT_TYPE":"PAYLOAD","COUNTRY_CODE":"US","EPOCH":"2022-04-07T18:55:25.948128","CLASSIFICATION_TYPE":"U","EPHEMERIS_TYPE":"0","LAUNCH_DATE":"2020-10-18","PERIAPSIS":"546.093","BSTAR":"0.00001633200000","INCLINATION":"53.0543","MEAN_MOTION":"15.06391509","SITE":"AFETR","PERIOD":"95.593","MEAN_MOTION_DOT":"-0.00000038","GP_ID":"200701098","MEAN_ELEMENT_THEORY":"SGP4","OBJECT_ID":"2020-073M","RCS_SIZE":"LARGE","MEAN_ANOMALY":"309.9159","ARG_OF_PERICENTER":"50.1976","CENTER_NAME":"EARTH","TLE_LINE2":"2 46681  53.0543 204.6728 0001656  50.1976 309.9159 15.06391509 81095","APOAPSIS":"548.386","TLE_LINE1":"1 46681U 20073M   22097.78849477 -.00000038  00000-0  16332-4 0  9992","ELEMENT_SET_NO":"999","REF_FRAME":"TEME","TIME_SYSTEM":"UTC","ECCENTRICITY":"0.00016560","FILE":"3392478","SEMIMAJOR_AXIS":"6925.375","DECAY_DATE":null,"OBJECT_NAME":"STARLINK-1775","MEAN_MOTION_DDOT":"0.0000000000000","REV_AT_EPOCH":"8109","RA_OF_ASC_NODE":"204.6728"},{"REF_FRAME":"TEME","ELEMENT_SET_NO":"999","ECCENTRICITY":"0.00020450","FILE":"3392478","TIME_SYSTEM":"UTC","OBJECT_NAME":"STARLINK-1776","DECAY_DATE":null,"SEMIMAJOR_AXIS":"6925.296","RA_OF_ASC_NODE":"205.4379","REV_AT_EPOCH":"8107","MEAN_MOTION_DDOT":"0.0000000000000","LAUNCH_DATE":"2020-10-18","CLASSIFICATION_TYPE":"U","EPHEMERIS_TYPE":"0","OBJECT_TYPE":"PAYLOAD","COUNTRY_CODE":"US","EPOCH":"2022-04-07T14:45:58.484736","NORAD_CAT_ID":"46682","INCLINATION":"53.0539","PERIAPSIS":"545.745","BSTAR":"0.00172620000000","GP_ID":"200699847","MEAN_ELEMENT_THEORY":"SGP4","SITE":"AFETR","PERIOD":"95.591","MEAN_MOTION_DOT":"0.00025536","MEAN_MOTION":"15.06417222","TLE_LINE2":"2 46682  53.0539 205.4379 0002045  46.1711 313.9447 15.06417222 81071","APOAPSIS":"548.577","TLE_LINE1":"1 46682U 20073N   22097.61526024  .00025536  00000-0  17262-2 0  9995","CENTER_NAME":"EARTH","ARG_OF_PERICENTER":"46.1711","OBJECT_ID":"2020-073N","RCS_SIZE":"LARGE","MEAN_ANOMALY":"313.9447"},{"EPOCH":"2022-04-07T17:40:27.837984","COUNTRY_CODE":"US","OBJECT_TYPE":"PAYLOAD","NORAD_CAT_ID":"46684","LAUNCH_DATE":"2020-10-18","EPHEMERIS_TYPE":"0","CLASSIFICATION_TYPE":"U","BSTAR":"0.00073498000000","PERIAPSIS":"545.947","INCLINATION":"53.0541","MEAN_MOTION":"15.06412355","MEAN_ELEMENT_THEORY":"SGP4","GP_ID":"200700097","MEAN_MOTION_DOT":"0.00010686","PERIOD":"95.591","SITE":"AFETR","RCS_SIZE":"LARGE","MEAN_ANOMALY":"312.0200","OBJECT_ID":"2020-073Q","TLE_LINE1":"1 46684U 20073Q   22097.73643331  .00010686  00000-0  73498-3 0  9995","APOAPSIS":"548.404","TLE_LINE2":"2 46684  53.0541 189.8951 0001774  48.0940 312.0200 15.06412355 81305","CENTER_NAME":"EARTH","ARG_OF_PERICENTER":"48.0940","REF_FRAME":"TEME","ELEMENT_SET_NO":"999","ECCENTRICITY":"0.00017740","FILE":"3392478","TIME_SYSTEM":"UTC","DECAY_DATE":null,"SEMIMAJOR_AXIS":"6925.311","OBJECT_NAME":"STARLINK-1780","REV_AT_EPOCH":"8130","MEAN_MOTION_DDOT":"0.0000000000000","RA_OF_ASC_NODE":"189.8951"},{"CLASSIFICATION_TYPE":"U","EPHEMERIS_TYPE":"0","LAUNCH_DATE":"2020-10-18","NORAD_CAT_ID":"46685","COUNTRY_CODE":"US","OBJECT_TYPE":"PAYLOAD","EPOCH":"2022-04-07T19:00:44.956800","INCLINATION":"53.0539","PERIAPSIS":"546.050","BSTAR":"0.00050831000000","SITE":"AFETR","MEAN_MOTION_DOT":"0.00007298","PERIOD":"95.592","GP_ID":"200701344","MEAN_ELEMENT_THEORY":"SGP4","MEAN_MOTION":"15.06400772","ARG_OF_PERICENTER":"48.8498","CENTER_NAME":"EARTH","TLE_LINE2":"2 46685  53.0539 204.6661 0001677  48.8498 311.2635 15.06400772 81094","APOAPSIS":"548.373","TLE_LINE1":"1 46685U 20073R   22097.79218700  .00007298  00000-0  50831-3 0  9991","OBJECT_ID":"2020-073R","RCS_SIZE":"LARGE","MEAN_ANOMALY":"311.2635","ELEMENT_SET_NO":"999","REF_FRAME":"TEME","TIME_SYSTEM":"UTC","ECCENTRICITY":"0.00016770","FILE":"3392478","OBJECT_NAME":"STARLINK-1781","SEMIMAJOR_AXIS":"6925.346","DECAY_DATE":null,"RA_OF_ASC_NODE":"204.6661","MEAN_MOTION_DDOT":"0.0000000000000","REV_AT_EPOCH":"8109"},{"OBJECT_ID":"2020-073S","MEAN_ANOMALY":"304.3048","RCS_SIZE":"LARGE","ARG_OF_PERICENTER":"55.8098","CENTER_NAME":"EARTH","TLE_LINE2":"2 46686  53.0540 205.6331 0001654  55.8098 304.3048 15.06416420 81066","APOAPSIS":"548.309","TLE_LINE1":"1 46686U 20073S   22097.57470723  .00011716  00000-0  80374-3 0  9998","MEAN_MOTION":"15.06416420","SITE":"AFETR","MEAN_MOTION_DOT":"0.00011716","PERIOD":"95.591","GP_ID":"200660982","MEAN_ELEMENT_THEORY":"SGP4","PERIAPSIS":"546.018","BSTAR":"0.00080374000000","INCLINATION":"53.0540","NORAD_CAT_ID":"46686","OBJECT_TYPE":"PAYLOAD","COUNTRY_CODE":"US","EPOCH":"2022-04-07T13:47:34.704672","CLASSIFICATION_TYPE":"U","EPHEMERIS_TYPE":"0","LAUNCH_DATE":"2020-10-18","MEAN_MOTION_DDOT":"0.0000000000000","REV_AT_EPOCH":"8106","RA_OF_ASC_NODE":"205.6331","SEMIMAJOR_AXIS":"6925.298","DECAY_DATE":null,"OBJECT_NAME":"STARLINK-1783","TIME_SYSTEM":"UTC","FILE":"3391885","ECCENTRICITY":"0.00016540","ELEMENT_SET_NO":"999","REF_FRAME":"TEME"},{"RA_OF_ASC_NODE":"169.2011","REV_AT_EPOCH":"8160","MEAN_MOTION_DDOT":"0.0000000000000","OBJECT_NAME":"STARLINK-1784","DECAY_DATE":null,"SEMIMAJOR_AXIS":"6925.340","ECCENTRICITY":"0.00018280","FILE":"3392478","TIME_SYSTEM":"UTC","REF_FRAME":"TEME","ELEMENT_SET_NO":"999","TLE_LINE2":"2 46687  53.0534 169.2011 0001828  39.0418 321.0703 15.06402898 81601","APOAPSIS":"548.471","TLE_LINE1":"1 46687U 20073T   22097.89308470  .00013243  00000-0  90619-3 0  9993","CENTER_NAME":"EARTH","ARG_OF_PERICENTER":"39.0418","OBJECT_ID":"2020-073T","MEAN_ANOMALY":"321.0703","RCS_SIZE":"LARGE","GP_ID":"200700348","MEAN_ELEMENT_THEORY":"SGP4","SITE":"AFETR","PERIOD":"95.592","MEAN_MOTION_DOT":"0.00013243","MEAN_MOTION":"15.06402898","INCLINATION":"53.0534","PERIAPSIS":"545.939","BSTAR":"0.00090619000000","LAUNCH_DATE":"2020-10-18","CLASSIFICATION_TYPE":"U","EPHEMERIS_TYPE":"0","COUNTRY_CODE":"US","OBJECT_TYPE":"PAYLOAD","EPOCH":"2022-04-07T21:26:02.518080","NORAD_CAT_ID":"46687"},{"MEAN_MOTION_DOT":"0.00000925","PERIOD":"95.592","SITE":"AFETR","MEAN_ELEMENT_THEORY":"SGP4","GP_ID":"200700598","MEAN_MOTION":"15.06404704","CENTER_NAME":"EARTH","ARG_OF_PERICENTER":"52.8238","APOAPSIS":"548.353","TLE_LINE1":"1 46689U 20073V   22097.78480525  .00000925  00000-0  80970-4 0  9998","TLE_LINE2":"2 46689  53.0539 204.6981 0001666  52.8238 307.2903 15.06404704 82349","RCS_SIZE":"LARGE","MEAN_ANOMALY":"307.2903","OBJECT_ID":"2020-073V","EPHEMERIS_TYPE":"0","CLASSIFICATION_TYPE":"U","LAUNCH_DATE":"2020-10-18","NORAD_CAT_ID":"46689","EPOCH":"2022-04-07T18:50:07.173600","COUNTRY_CODE":"US","OBJECT_TYPE":"PAYLOAD","INCLINATION":"53.0539","BSTAR":"0.00008097000000","PERIAPSIS":"546.045","OBJECT_NAME":"STARLINK-1788","SEMIMAJOR_AXIS":"6925.334","DECAY_DATE":null,"RA_OF_ASC_NODE":"204.6981","MEAN_MOTION_DDOT":"0.0000000000000","REV_AT_EPOCH":"8234","ELEMENT_SET_NO":"999","REF_FRAME":"TEME","TIME_SYSTEM":"UTC","FILE":"3392478","ECCENTRICITY":"0.00016660"},{"PERIAPSIS":"546.142","BSTAR":"0.00071108000000","INCLINATION":"53.0538","NORAD_CAT_ID":"46690","COUNTRY_CODE":"US","OBJECT_TYPE":"PAYLOAD","EPOCH":"2022-04-07T17:15:14.558400","CLASSIFICATION_TYPE":"U","EPHEMERIS_TYPE":"0","LAUNCH_DATE":"2020-10-18","OBJECT_ID":"2020-073W","MEAN_ANOMALY":"288.7987","RCS_SIZE":"LARGE","CENTER_NAME":"EARTH","ARG_OF_PERICENTER":"71.3164","TLE_LINE2":"2 46690  53.0538 179.9776 0001493  71.3164 288.7987 15.06412241 81437","APOAPSIS":"548.210","TLE_LINE1":"1 46690U 20073W   22097.71891850  .00010329  00000-0  71108-3 0  9991","MEAN_MOTION":"15.06412241","SITE":"AFETR","PERIOD":"95.591","MEAN_MOTION_DOT":"0.00010329","GP_ID":"200700844","MEAN_ELEMENT_THEORY":"SGP4","TIME_SYSTEM":"UTC","ECCENTRICITY":"0.00014930","FILE":"3392478","ELEMENT_SET_NO":"999","REF_FRAME":"TEME","MEAN_MOTION_DDOT":"0.0000000000000","REV_AT_EPOCH":"8143","RA_OF_ASC_NODE":"179.9776","SEMIMAJOR_AXIS":"6925.311","DECAY_DATE":null,"OBJECT_NAME":"STARLINK-1789"}];
